ONEWEB-0336             
1 49202U 21083S   26160.48854517  .00000046  00000+0  90086-4 0  9994
2 49202  87.8947 321.7615 0002248  94.8835 265.2551 13.13470244229907
ONEWEB-0337             
1 49203U 21083T   26160.49857132  .00000164  00000+0  41471-3 0  9996
2 49203  87.8944 321.7656 0001978  98.2422 261.8931 13.13470938229903
ONEWEB-0338             
1 49204U 21083U   26160.38967595  .00001008  00000+0  24469-2 0  9995
2 49204  87.9183 276.0037 0002057  98.4301 261.7066 13.20774033235784
ONEWEB-0339             
1 49205U 21083V   26160.35481502  .00000355  00000+0  93811-3 0  9994
2 49205  87.8946 321.7865 0001555  99.4949 260.6356 13.13470222229866
ONEWEB-0340             
1 49206U 21083W   26160.46999679  .00000104  00000+0  23017-3 0  9999
2 49206  87.9168 336.9908 0001932  91.5912 268.5441 13.18685072228959
ONEWEB-0341             
1 49207U 21083X   26160.55262147  .00000007  00000+0 -15413-4 0  9998
2 49207  87.9162 336.9781 0002092 104.0624 256.0741 13.18685366228985
ONEWEB-0342             
1 49208U 21083Y   26160.54792009  .00000037  00000+0  60149-4 0  9991
2 49208  87.9190 275.9591 0001878 102.6203 257.5141 13.20770916235770
ONEWEB-0343             
1 49209U 21083Z   26160.48518014  .00000058  00000+0  11353-3 0  9992
2 49209  87.9164 336.9899 0001491  99.9704 260.1596 13.18686272229029
ONEWEB-0344             
1 49210U 21083AA  26160.19738105  .00000258  00000+0  67274-3 0  9992
2 49210  87.8936 321.8329 0002026 104.6763 255.4591 13.13472193229844
ONEWEB-0345             
1 49211U 21083AB  26160.49362124  .00000062  00000+0  13594-3 0  9999
2 49211  87.8955 321.7535 0001986 103.4258 256.7092 13.13471418229898
ONEWEB-0346             
1 49212U 21083AC  26160.48180250  .00000087  00000+0  18858-3 0  9992
2 49212  87.9159 336.9915 0002437  83.8934 276.2476 13.18686113228965
ONEWEB-0348             
1 49213U 21083AD  26160.31054505  .00000061  00000+0  11780-3 0  9997
2 49213  87.9192 276.0104 0002484 100.9412 259.2001 13.20770677235775
ONEWEB-0350             
1 49214U 21083AE  26160.50720042  .00000363  00000+0  96601-3 0  9995
2 49214  87.8953 321.7541 0002021 100.2722 259.8635 13.12943622229929
ONEWEB-0351             
1 49215U 21083AF  26160.30366288  .00000049  00000+0  87795-4 0  9998
2 49215  87.9194 276.0103 0001677 127.3164 232.8123 13.20770109235736
ONEWEB-0352             
1 49216U 21083AG  26160.48346829 -.00000164  00000+0 -48483-3 0  9997
2 49216  87.8949 321.7673 0001500 104.9378 255.1918 13.13470601230019
ONEWEB-0354             
1 49217U 21083AH  26160.55802919  .00000038  00000+0  60370-4 0  9991
2 49217  87.9191 275.9587 0002353 103.5977 256.5418 13.20772845235806
ONEWEB-0355             
1 49218U 21083AJ  26160.43621190  .00000412  00000+0  10932-2 0  9992
2 49218  87.8943 321.7781 0001774 102.2299 257.9029 13.13469896229881
ONEWEB-0357             
1 49219U 21083AK  26160.55465987  .00000065  00000+0  12676-3 0  9998
2 49219  87.9190 275.9537 0001828 105.6125 254.5211 13.20772817235804
ONEWEB-0332             
1 49279U 21090A   26160.37848909 -.00000355  00000+0 -99337-3 0  9994
2 49279  87.8959 291.2654 0001640  97.2353 262.8964 13.14502739226550
ONEWEB-0347             
1 49280U 21090B   26160.54455415  .00000008  00000+0 -11801-4 0  9996
2 49280  87.9190 275.9637 0001720  96.9625 263.1704 13.20770738230034
ONEWEB-0349             
1 49281U 21090C   26160.57654883  .00000100  00000+0  21453-3 0  9995
2 49281  87.9191 275.9581 0001977 101.2971 258.8385 13.20772362228827
ONEWEB-0353             
1 49282U 21090D   26160.37057787  .00000117  00000+0  28163-3 0  9997
2 49282  87.8963 291.2625 0001653  95.9459 264.1859 13.14503147226555
ONEWEB-0356             
1 49283U 21090E   26160.57486393  .00000084  00000+0  17563-3 0  9994
2 49283  87.9190 275.9516 0002309  80.4921 279.6473 13.20773481228821
ONEWEB-0358             
1 49284U 21090F   26160.30166557 -.00029331  00000+0 -72688-1 0  9998
2 49284  87.9153 276.0005 0002731  98.5587 261.5856 13.20507327229519
ONEWEB-0359             
1 49285U 21090G   26160.37452797 -.00000007  00000+0 -48565-4 0  9999
2 49285  87.9190 275.9914 0002240 102.1402 257.9982 13.20772001229502
ONEWEB-0360             
1 49286U 21090H   26160.36442822  .00000065  00000+0  12844-3 0  9999
2 49286  87.9189 275.9997 0002067 104.2158 255.9205 13.20764545228813
ONEWEB-0361             
1 49287U 21090J   26160.57316816  .00000164  00000+0  37227-3 0  9998
2 49287  87.9191 275.9566 0002102  99.3785 260.7586 13.20771071229290
ONEWEB-0362             
1 49288U 21090K   26160.44390586  .00000126  00000+0  28278-3 0  9995
2 49288  87.9163 306.5212 0001800 105.9163 254.2168 13.19724120225894
ONEWEB-0363             
1 49289U 21090L   26160.36104408  .00000029  00000+0  39171-4 0  9990
2 49289  87.9190 275.9991 0002117  92.5356 267.6020 13.20770384229271
ONEWEB-0364             
1 49290U 21090M   26160.55128555  .00000045  00000+0  79323-4 0  9993
2 49290  87.9186 275.9691 0001982 101.4950 258.6406 13.20771405230437
