OBJECT_NAME,OBJECT_ID,EPOCH,MEAN_MOTION,ECCENTRICITY,INCLINATION,RA_OF_ASC_NODE,ARG_OF_PERICENTER,MEAN_ANOMALY,EPHEMERIS_TYPE,CLASSIFICATION_TYPE,NORAD_CAT_ID,ELEMENT_SET_NO,REV_AT_EPOCH,BSTAR,MEAN_MOTION_DOT,MEAN_MOTION_DDOT
ONEWEB-0336,2021-083S,2026-06-09T11:43:30.302688,13.13470244,.00022483,87.8947,321.7615,94.8835,265.2551,0,U,49202,999,22990,.90086338E-4,.46E-6,0
ONEWEB-0337,2021-083T,2026-06-09T11:57:56.562048,13.13470938,.00019788,87.8944,321.7656,98.2422,261.8931,0,U,49203,999,22990,.4147116E-3,.164E-5,0
ONEWEB-0338,2021-083U,2026-06-09T09:21:08.002080,13.20774033,.00020573,87.9183,276.0037,98.4301,261.7066,0,U,49204,999,23578,.24468804E-2,.1008E-4,0
ONEWEB-0339,2021-083V,2026-06-09T08:30:56.017728,13.13470222,.00015551,87.8946,321.7865,99.4949,260.6356,0,U,49205,999,22986,.93810971E-3,.355E-5,0
ONEWEB-0340,2021-083W,2026-06-09T11:16:47.722656,13.18685072,.00019328,87.9168,336.9908,91.5912,268.5441,0,U,49206,999,22895,.23017013E-3,.104E-5,0
ONEWEB-0341,2021-083X,2026-06-09T13:15:46.495008,13.18685366,.00020924,87.9162,336.9781,104.0624,256.0741,0,U,49207,999,22898,-.15412865E-4,.7E-7,0
ONEWEB-0342,2021-083Y,2026-06-09T13:09:00.295776,13.20770916,.00018788,87.9190,275.9591,102.6203,257.5141,0,U,49208,999,23577,.60148901E-4,.37E-6,0
ONEWEB-0343,2021-083Z,2026-06-09T11:38:39.564096,13.18686272,.0001491,87.9164,336.9899,99.9704,260.1596,0,U,49209,999,22902,.11353071E-3,.58E-6,0
ONEWEB-0344,2021-083AA,2026-06-09T04:44:13.722720,13.13472193,.0002026,87.8936,321.8329,104.6763,255.4591,0,U,49210,999,22984,.67274E-3,.258E-5,0
ONEWEB-0345,2021-083AB,2026-06-09T11:50:48.875136,13.13471418,.00019865,87.8955,321.7535,103.4258,256.7092,0,U,49211,999,22989,.13594104E-3,.62E-6,0
ONEWEB-0346,2021-083AC,2026-06-09T11:33:47.736000,13.18686113,.00024377,87.9159,336.9915,83.8934,276.2476,0,U,49212,999,22896,.18858462E-3,.87E-6,0
ONEWEB-0348,2021-083AD,2026-06-09T07:27:11.092320,13.20770677,.00024841,87.9192,276.0104,100.9412,259.2001,0,U,49213,999,23577,.1177995E-3,.61E-6,0
ONEWEB-0350,2021-083AE,2026-06-09T12:10:22.116288,13.12943622,.0002021,87.8953,321.7541,100.2722,259.8635,0,U,49214,999,22992,.9660074E-3,.363E-5,0
ONEWEB-0351,2021-083AF,2026-06-09T07:17:16.472832,13.20770109,.00016776,87.9194,276.0103,127.3164,232.8123,0,U,49215,999,23573,.87795156E-4,.49E-6,0
ONEWEB-0352,2021-083AG,2026-06-09T11:36:11.660256,13.13470601,.00015007,87.8949,321.7673,104.9378,255.1918,0,U,49216,999,23001,-.4848341E-3,-.164E-5,0
ONEWEB-0354,2021-083AH,2026-06-09T13:23:33.722016,13.20772845,.00023538,87.9191,275.9587,103.5977,256.5418,0,U,49217,999,23580,.60370392E-4,.38E-6,0
ONEWEB-0355,2021-083AJ,2026-06-09T10:28:08.708160,13.13469896,.0001774,87.8943,321.7781,102.2299,257.9029,0,U,49218,999,22988,.10931701E-2,.412E-5,0
ONEWEB-0357,2021-083AK,2026-06-09T13:18:42.612768,13.20772817,.0001828,87.9190,275.9537,105.6125,254.5211,0,U,49219,999,23580,.12675774E-3,.65E-6,0
ONEWEB-0332,2021-090A,2026-06-09T09:05:01.457376,13.14502739,.00016404,87.8959,291.2654,97.2353,262.8964,0,U,49279,999,22655,-.99337419E-3,-.355E-5,0
ONEWEB-0347,2021-090B,2026-06-09T13:04:09.478560,13.20770738,.00017209,87.9190,275.9637,96.9625,263.1704,0,U,49280,999,23003,-.11801012E-4,.8E-7,0
ONEWEB-0349,2021-090C,2026-06-09T13:50:13.818912,13.20772362,.00019776,87.9191,275.9581,101.2971,258.8385,0,U,49281,999,22882,.21452767E-3,.1E-5,0
ONEWEB-0353,2021-090D,2026-06-09T08:53:37.927968,13.14503147,.00016537,87.8963,291.2625,95.9459,264.1859,0,U,49282,999,22655,.28162515E-3,.117E-5,0
ONEWEB-0356,2021-090E,2026-06-09T13:47:48.243552,13.20773481,.00023096,87.9190,275.9516,80.4921,279.6473,0,U,49283,999,22882,.17563119E-3,.84E-6,0
ONEWEB-0358,2021-090F,2026-06-09T07:14:23.905248,13.20507327,.00027311,87.9153,276.0005,98.5587,261.5856,0,U,49284,999,22951,-.72687921E-1,-.29331E-3,0
ONEWEB-0359,2021-090G,2026-06-09T08:59:19.216608,13.20772001,.00022407,87.9190,275.9914,102.1402,257.9982,0,U,49285,999,22950,-.48564616E-4,-.7E-7,0
ONEWEB-0360,2021-090H,2026-06-09T08:44:46.598208,13.20764545,.0002067,87.9189,275.9997,104.2158,255.9205,0,U,49286,999,22881,.12843781E-3,.65E-6,0
ONEWEB-0361,2021-090J,2026-06-09T13:45:21.729024,13.20771071,.00021026,87.9191,275.9566,99.3785,260.7586,0,U,49287,999,22929,.3722681E-3,.164E-5,0
ONEWEB-0362,2021-090K,2026-06-09T10:39:13.466304,13.19724120,.00018008,87.9163,306.5212,105.9163,254.2168,0,U,49288,999,22589,.28277996E-3,.126E-5,0
ONEWEB-0363,2021-090L,2026-06-09T08:39:54.208512,13.20770384,.00021175,87.9190,275.9991,92.5356,267.6020,0,U,49289,999,22927,.39170576E-4,.29E-6,0
ONEWEB-0364,2021-090M,2026-06-09T13:13:51.071520,13.20771405,.00019828,87.9186,275.9691,101.4950,258.6406,0,U,49290,999,23043,.79322646E-4,.45E-6,0
